{"type": "FeatureCollection", "features": [{"type": "Feature", "properties": {"norad_id": 28890, "name": "BEIJING 1", "group": "dmc", "lat": 21.92611419690869, "lon": 105.37423470151029, "alt_km": 689.7002851391171, "timestamp": "2025-12-07T05:38:09.574627+00:00", "meta": {"OBJECT_NAME": "BEIJING 1", "OBJECT_ID": "2005-043A", "EPOCH": "2025-12-06T13:07:27.602400", "MEAN_MOTION": 14.63357206, "ECCENTRICITY": 0.00150335, "INCLINATION": 98.2657, "RA_OF_ASC_NODE": 108.0394, "ARG_OF_PERICENTER": 160.1212, "MEAN_ANOMALY": 200.0579, "EPHEMERIS_TYPE": 0, "CLASSIFICATION_TYPE": "U", "NORAD_CAT_ID": 28890, "ELEMENT_SET_NO": 999, "REV_AT_EPOCH": 7247, "BSTAR": 0.00016757062, "MEAN_MOTION_DOT": 8.18e-06, "MEAN_MOTION_DDOT": 0}, "tle": {"line1": "1 28890U 05043A   25340.54684725  .00000818  00000+0  16757-3 0  9999", "line2": "2 28890  98.2657 108.0394 0015033 160.1212 200.0579 14.63357206 72476"}}, "geometry": {"type": "Point", "coordinates": [105.37423470151029, 21.92611419690869]}}, {"type": "Feature", "properties": {"norad_id": 33320, "name": "HUANJING 1A (HJ-1A)", "group": "dmc", "lat": 13.510380196440927, "lon": -32.088253505999674, "alt_km": 608.4893064882999, "timestamp": "2025-12-07T05:38:09.574651+00:00", "meta": {"OBJECT_NAME": "HUANJING 1A (HJ-1A)", "OBJECT_ID": "2008-041A", "EPOCH": "2025-12-06T15:00:16.137792", "MEAN_MOTION": 14.83365029, "ECCENTRICITY": 0.00205029, "INCLINATION": 97.6535, "RA_OF_ASC_NODE": 329.1791, "ARG_OF_PERICENTER": 53.6274, "MEAN_ANOMALY": 306.6829, "EPHEMERIS_TYPE": 0, "CLASSIFICATION_TYPE": "U", "NORAD_CAT_ID": 33320, "ELEMENT_SET_NO": 999, "REV_AT_EPOCH": 92985, "BSTAR": 0.00035351491, "MEAN_MOTION_DOT": 2.858e-05, "MEAN_MOTION_DDOT": 0}, "tle": {"line1": "1 33320U 08041A   25340.62518678  .00002858  00000+0  35351-3 0  9993", "line2": "2 33320  97.6535 329.1791 0020502  53.6274 306.6829 14.83365029929854"}}, "geometry": {"type": "Point", "coordinates": [-32.088253505999674, 13.510380196440927]}}, {"type": "Feature", "properties": {"norad_id": 33321, "name": "HUANJING 1B (HJ-1B)", "group": "dmc", "lat": -65.40292307242893, "lon": 136.42498750890417, "alt_km": 651.6578530911602, "timestamp": "2025-12-07T05:38:09.574665+00:00", "meta": {"OBJECT_NAME": "HUANJING 1B (HJ-1B)", "OBJECT_ID": "2008-041B", "EPOCH": "2025-12-06T13:57:16.018560", "MEAN_MOTION": 14.82797156, "ECCENTRICITY": 0.00382619, "INCLINATION": 97.6394, "RA_OF_ASC_NODE": 332.8502, "ARG_OF_PERICENTER": 95.2846, "MEAN_ANOMALY": 265.2736, "EPHEMERIS_TYPE": 0, "CLASSIFICATION_TYPE": "U", "NORAD_CAT_ID": 33321, "ELEMENT_SET_NO": 999, "REV_AT_EPOCH": 92986, "BSTAR": 0.0002969466, "MEAN_MOTION_DOT": 2.381e-05, "MEAN_MOTION_DDOT": 0}, "tle": {"line1": "1 33321U 08041B   25340.58143540  .00002381  00000+0  29695-3 0  9996", "line2": "2 33321  97.6394 332.8502 0038261  95.2846 265.2736 14.82797156929864"}}, "geometry": {"type": "Point", "coordinates": [136.42498750890417, -65.40292307242893]}}, {"type": "Feature", "properties": {"norad_id": 33446, "name": "YAOGAN-4", "group": "dmc", "lat": 19.108499005462825, "lon": 94.15147320269355, "alt_km": 631.0769855692133, "timestamp": "2025-12-07T05:38:09.574677+00:00", "meta": {"OBJECT_NAME": "YAOGAN-4", "OBJECT_ID": "2008-061A", "EPOCH": "2025-12-06T12:43:00.354144", "MEAN_MOTION": 14.82652178, "ECCENTRICITY": 0.00141256, "INCLINATION": 97.9175, "RA_OF_ASC_NODE": 270.6901, "ARG_OF_PERICENTER": 344.238, "MEAN_ANOMALY": 15.8391, "EPHEMERIS_TYPE": 0, "CLASSIFICATION_TYPE": "U", "NORAD_CAT_ID": 33446, "ELEMENT_SET_NO": 999, "REV_AT_EPOCH": 91711, "BSTAR": 0.00035047071, "MEAN_MOTION_DOT": 2.776e-05, "MEAN_MOTION_DDOT": 0}, "tle": {"line1": "1 33446U 08061A   25340.52986521  .00002776  00000+0  35047-3 0  9990", "line2": "2 33446  97.9175 270.6901 0014125 344.2380  15.8391 14.82652178917112"}}, "geometry": {"type": "Point", "coordinates": [94.15147320269355, 19.108499005462825]}}, {"type": "Feature", "properties": {"norad_id": 35681, "name": "DEIMOS-1", "group": "dmc", "lat": 79.8035092610442, "lon": 93.18099996965353, "alt_km": 636.0882200780179, "timestamp": "2025-12-07T05:38:09.574688+00:00", "meta": {"OBJECT_NAME": "DEIMOS-1", "OBJECT_ID": "2009-041A", "EPOCH": "2025-12-06T14:36:22.252032", "MEAN_MOTION": 14.74938257, "ECCENTRICITY": 0.00026899, "INCLINATION": 97.7153, "RA_OF_ASC_NODE": 141.4978, "ARG_OF_PERICENTER": 91.6314, "MEAN_ANOMALY": 268.5204, "EPHEMERIS_TYPE": 0, "CLASSIFICATION_TYPE": "U", "NORAD_CAT_ID": 35681, "ELEMENT_SET_NO": 999, "REV_AT_EPOCH": 87849, "BSTAR": 0.00020547156, "MEAN_MOTION_DOT": 1.333e-05, "MEAN_MOTION_DDOT": 0}, "tle": {"line1": "1 35681U 09041A   25340.60859088  .00001333  00000+0  20547-3 0  9995", "line2": "2 35681  97.7153 141.4978 0002689  91.6314 268.5204 14.74938257878493"}}, "geometry": {"type": "Point", "coordinates": [93.18099996965353, 79.8035092610442]}}, {"type": "Feature", "properties": {"norad_id": 35683, "name": "UK-DMC 2", "group": "dmc", "lat": 80.76272812672187, "lon": 58.18898374820841, "alt_km": 634.8925947335847, "timestamp": "2025-12-07T05:38:09.574699+00:00", "meta": {"OBJECT_NAME": "UK-DMC 2", "OBJECT_ID": "2009-041C", "EPOCH": "2025-12-06T12:58:38.131968", "MEAN_MOTION": 14.75601126, "ECCENTRICITY": 0.00013648, "INCLINATION": 97.8563, "RA_OF_ASC_NODE": 115.619, "ARG_OF_PERICENTER": 102.9226, "MEAN_ANOMALY": 257.2136, "EPHEMERIS_TYPE": 0, "CLASSIFICATION_TYPE": "U", "NORAD_CAT_ID": 35683, "ELEMENT_SET_NO": 999, "REV_AT_EPOCH": 87815, "BSTAR": 0.00031820528, "MEAN_MOTION_DOT": 2.122e-05, "MEAN_MOTION_DDOT": 0}, "tle": {"line1": "1 35683U 09041C   25340.54071912  .00002122  00000+0  31821-3 0  9996", "line2": "2 35683  97.8563 115.6190 0001364 102.9226 257.2136 14.75601126878152"}}, "geometry": {"type": "Point", "coordinates": [58.18898374820841, 80.76272812672187]}}, {"type": "Feature", "properties": {"norad_id": 40715, "name": "DMC3-FM1", "group": "dmc", "lat": -59.35082332037054, "lon": -138.2262744640729, "alt_km": 616.7468153366581, "timestamp": "2025-12-07T05:38:09.574715+00:00", "meta": {"OBJECT_NAME": "DMC3-FM1", "OBJECT_ID": "2015-032A", "EPOCH": "2025-12-06T15:21:22.541472", "MEAN_MOTION": 14.85424506, "ECCENTRICITY": 0.00050566, "INCLINATION": 97.6703, "RA_OF_ASC_NODE": 208.0544, "ARG_OF_PERICENTER": 343.3039, "MEAN_ANOMALY": 16.8009, "EPHEMERIS_TYPE": 0, "CLASSIFICATION_TYPE": "U", "NORAD_CAT_ID": 40715, "ELEMENT_SET_NO": 999, "REV_AT_EPOCH": 56132, "BSTAR": 0.00018439769, "MEAN_MOTION_DOT": 1.538e-05, "MEAN_MOTION_DDOT": 0}, "tle": {"line1": "1 40715U 15032A   25340.63984423  .00001538  00000+0  18440-3 0  9997", "line2": "2 40715  97.6703 208.0544 0005056 343.3039  16.8009 14.85424506561325"}}, "geometry": {"type": "Point", "coordinates": [-138.2262744640729, -59.35082332037054]}}, {"type": "Feature", "properties": {"norad_id": 40716, "name": "DMC3-FM2", "group": "dmc", "lat": 0.2794269312773675, "lon": 30.105312817212024, "alt_km": 619.1084671911976, "timestamp": "2025-12-07T05:38:09.574736+00:00", "meta": {"OBJECT_NAME": "DMC3-FM2", "OBJECT_ID": "2015-032B", "EPOCH": "2025-12-06T15:53:46.797216", "MEAN_MOTION": 14.85425859, "ECCENTRICITY": 0.00056942, "INCLINATION": 97.6761, "RA_OF_ASC_NODE": 209.5157, "ARG_OF_PERICENTER": 347.6543, "MEAN_ANOMALY": 12.4532, "EPHEMERIS_TYPE": 0, "CLASSIFICATION_TYPE": "U", "NORAD_CAT_ID": 40716, "ELEMENT_SET_NO": 999, "REV_AT_EPOCH": 56132, "BSTAR": 0.00018562048, "MEAN_MOTION_DOT": 1.548e-05, "MEAN_MOTION_DDOT": 0}, "tle": {"line1": "1 40716U 15032B   25340.66234719  .00001548  00000+0  18562-3 0  9993", "line2": "2 40716  97.6761 209.5157 0005694 347.6543  12.4532 14.85425859561326"}}, "geometry": {"type": "Point", "coordinates": [30.105312817212024, 0.2794269312773675]}}, {"type": "Feature", "properties": {"norad_id": 40717, "name": "DMC3-FM3", "group": "dmc", "lat": 63.20958786481455, "lon": -163.80680893127598, "alt_km": 605.286391115088, "timestamp": "2025-12-07T05:38:09.574754+00:00", "meta": {"OBJECT_NAME": "DMC3-FM3", "OBJECT_ID": "2015-032C", "EPOCH": "2025-12-06T14:47:51.525312", "MEAN_MOTION": 14.85417167, "ECCENTRICITY": 0.00050599, "INCLINATION": 97.6815, "RA_OF_ASC_NODE": 211.1005, "ARG_OF_PERICENTER": 349.9831, "MEAN_ANOMALY": 10.1283, "EPHEMERIS_TYPE": 0, "CLASSIFICATION_TYPE": "U", "NORAD_CAT_ID": 40717, "ELEMENT_SET_NO": 999, "REV_AT_EPOCH": 56132, "BSTAR": 0.00015424314, "MEAN_MOTION_DOT": 1.277e-05, "MEAN_MOTION_DDOT": 0}, "tle": {"line1": "1 40717U 15032C   25340.61656858  .00001277  00000+0  15424-3 0  9994", "line2": "2 40717  97.6815 211.1005 0005059 349.9831  10.1283 14.85417167561329"}}, "geometry": {"type": "Point", "coordinates": [-163.80680893127598, 63.20958786481455]}}]}